start=new Date('2021-10-28T00:00:00.000Z').valueOf();
sats=[{"BSTAR":"0.00008371000000","EPOCH":"2021-10-27T05:02:25.605312","OBJECT_TYPE":"PAYLOAD","PERIAPSIS":"545.839","REV_AT_EPOCH":"8939","FILE":"3187107","GP_ID":"188269923","OBJECT_ID":"2020-019BK","SEMIMAJOR_AXIS":"6925.368","TLE_LINE2":"2 45417  53.0545 124.5268 0002012  83.3822 276.7396 15.06393734 89394","PERIOD":"95.593","EPHEMERIS_TYPE":"0","TIME_SYSTEM":"UTC","INCLINATION":"53.0545","MEAN_MOTION":"15.06393734","MEAN_MOTION_DOT":"0.00000965","ELEMENT_SET_NO":"999","ECCENTRICITY":"0.00020120","OBJECT_NAME":"STARLINK-1286","RA_OF_ASC_NODE":"124.5268","COUNTRY_CODE":"US","RCS_SIZE":"LARGE","CENTER_NAME":"EARTH","NORAD_CAT_ID":"45417","LAUNCH_DATE":"2020-03-18","REF_FRAME":"TEME","MEAN_ELEMENT_THEORY":"SGP4","ARG_OF_PERICENTER":"83.3822","MEAN_MOTION_DDOT":"0.0000000000000","SITE":"AFETR","DECAY_DATE":null,"CLASSIFICATION_TYPE":"U","MEAN_ANOMALY":"276.7396","TLE_LINE1":"1 45417U 20019BK  21300.21001858  .00000965  00000-0  83710-4 0  9997","APOAPSIS":"548.626"},{"ARG_OF_PERICENTER":"95.3979","MEAN_ELEMENT_THEORY":"SGP4","REF_FRAME":"TEME","LAUNCH_DATE":"2020-03-18","CENTER_NAME":"EARTH","NORAD_CAT_ID":"45418","RCS_SIZE":"LARGE","RA_OF_ASC_NODE":"141.2492","COUNTRY_CODE":"US","APOAPSIS":"564.445","TLE_LINE1":"1 45418U 20019BL  21300.37146332  .00004475  00000-0  36511-3 0  9998","MEAN_ANOMALY":"264.7233","DECAY_DATE":null,"CLASSIFICATION_TYPE":"U","SITE":"AFETR","MEAN_MOTION_DDOT":"0.0000000000000","GP_ID":"188270173","FILE":"3187107","PERIAPSIS":"561.695","REV_AT_EPOCH":"8889","EPOCH":"2021-10-27T08:54:54.430848","OBJECT_TYPE":"PAYLOAD","BSTAR":"0.00036511000000","ECCENTRICITY":"0.00019810","OBJECT_NAME":"STARLINK-1299","MEAN_MOTION_DOT":"0.00004475","ELEMENT_SET_NO":"999","MEAN_MOTION":"15.01241206","INCLINATION":"52.9997","EPHEMERIS_TYPE":"0","TIME_SYSTEM":"UTC","PERIOD":"95.921","TLE_LINE2":"2 45418  52.9997 141.2492 0001981  95.3979 264.7233 15.01241206 88891","SEMIMAJOR_AXIS":"6941.205","OBJECT_ID":"2020-019BL"},{"MEAN_MOTION_DDOT":"0.0000000000000","SITE":"AFETR","DECAY_DATE":null,"CLASSIFICATION_TYPE":"U","MEAN_ANOMALY":"270.9560","APOAPSIS":"548.356","TLE_LINE1":"1 45419U 20019BM  21300.20631046 -.00000962  00000-0 -45688-4 0  9997","RCS_SIZE":"LARGE","COUNTRY_CODE":"US","RA_OF_ASC_NODE":"124.5362","NORAD_CAT_ID":"45419","CENTER_NAME":"EARTH","MEAN_ELEMENT_THEORY":"SGP4","LAUNCH_DATE":"2020-03-18","REF_FRAME":"TEME","ARG_OF_PERICENTER":"89.1620","TLE_LINE2":"2 45419  53.0527 124.5362 0001668  89.1620 270.9560 15.06404032 89143","PERIOD":"95.592","OBJECT_ID":"2020-019BM","SEMIMAJOR_AXIS":"6925.336","TIME_SYSTEM":"UTC","EPHEMERIS_TYPE":"0","INCLINATION":"53.0527","ECCENTRICITY":"0.00016680","OBJECT_NAME":"STARLINK-1308","MEAN_MOTION":"15.06404032","ELEMENT_SET_NO":"999","MEAN_MOTION_DOT":"-0.00000962","REV_AT_EPOCH":"8914","PERIAPSIS":"546.046","BSTAR":"-0.00004568800000","OBJECT_TYPE":"PAYLOAD","EPOCH":"2021-10-27T04:57:05.223744","GP_ID":"188270925","FILE":"3187107"},{"NORAD_CAT_ID":"45531","CENTER_NAME":"EARTH","RA_OF_ASC_NODE":"63.7720","COUNTRY_CODE":"US","RCS_SIZE":"LARGE","ARG_OF_PERICENTER":"98.5190","REF_FRAME":"TEME","LAUNCH_DATE":"2020-04-22","MEAN_ELEMENT_THEORY":"SGP4","MEAN_ANOMALY":"261.5954","DECAY_DATE":null,"CLASSIFICATION_TYPE":"U","SITE":"AFETR","MEAN_MOTION_DDOT":"0.0000000000000","TLE_LINE1":"1 45531U 20025A   21300.37401085  .00000214  00000-0  33261-4 0  9997","APOAPSIS":"548.135","EPOCH":"2021-10-27T08:58:34.537440","OBJECT_TYPE":"PAYLOAD","BSTAR":"0.00003326100000","PERIAPSIS":"546.241","REV_AT_EPOCH":"8479","FILE":"3187107","GP_ID":"188271187","EPHEMERIS_TYPE":"0","TIME_SYSTEM":"UTC","SEMIMAJOR_AXIS":"6925.323","OBJECT_ID":"2020-025A","PERIOD":"95.592","TLE_LINE2":"2 45531  53.0549  63.7720 0001367  98.5190 261.5954 15.06408348 84799","ELEMENT_SET_NO":"999","MEAN_MOTION_DOT":"0.00000214","MEAN_MOTION":"15.06408348","ECCENTRICITY":"0.00013670","OBJECT_NAME":"STARLINK-1329","INCLINATION":"53.0549"},{"OBJECT_NAME":"STARLINK-1338","ECCENTRICITY":"0.00014430","MEAN_MOTION_DOT":"-0.00000210","ELEMENT_SET_NO":"999","MEAN_MOTION":"15.06400784","INCLINATION":"53.0553","TIME_SYSTEM":"UTC","EPHEMERIS_TYPE":"0","PERIOD":"95.592","TLE_LINE2":"2 45532  53.0553  63.7319 0001443  88.3285 271.7870 15.06400784 84792","SEMIMAJOR_AXIS":"6925.346","OBJECT_ID":"2020-025B","GP_ID":"188269935","FILE":"3187107","REV_AT_EPOCH":"8479","PERIAPSIS":"546.212","EPOCH":"2021-10-27T09:14:31.117632","OBJECT_TYPE":"PAYLOAD","BSTAR":"0.00000480650000","APOAPSIS":"548.210","TLE_LINE1":"1 45532U 20025B   21300.38508238 -.00000210  00000-0  48065-5 0  9993","MEAN_ANOMALY":"271.7870","CLASSIFICATION_TYPE":"U","DECAY_DATE":null,"SITE":"AFETR","MEAN_MOTION_DDOT":"0.0000000000000","ARG_OF_PERICENTER":"88.3285","MEAN_ELEMENT_THEORY":"SGP4","REF_FRAME":"TEME","LAUNCH_DATE":"2020-04-22","NORAD_CAT_ID":"45532","CENTER_NAME":"EARTH","RCS_SIZE":"LARGE","RA_OF_ASC_NODE":"63.7319","COUNTRY_CODE":"US"},{"EPHEMERIS_TYPE":"0","TIME_SYSTEM":"UTC","SEMIMAJOR_AXIS":"6915.913","OBJECT_ID":"2020-025C","PERIOD":"95.397","TLE_LINE2":"2 45533  53.0550  62.6640 0001501  77.3995 282.7163 15.09483999 84234","MEAN_MOTION_DOT":"0.00096584","ELEMENT_SET_NO":"999","MEAN_MOTION":"15.09483999","OBJECT_NAME":"STARLINK-1339","ECCENTRICITY":"0.00015010","INCLINATION":"53.0550","OBJECT_TYPE":"PAYLOAD","EPOCH":"2021-10-27T14:02:49.419744","BSTAR":"0.00589900000000","PERIAPSIS":"536.740","REV_AT_EPOCH":"8423","FILE":"3187259","GP_ID":"188276007","MEAN_ANOMALY":"282.7163","DECAY_DATE":null,"CLASSIFICATION_TYPE":"U","SITE":"AFETR","MEAN_MOTION_DDOT":"0.0000000000000","TLE_LINE1":"1 45533U 20025C   21300.58529421  .00096584  00000-0  58990-2 0  9996","APOAPSIS":"538.816","NORAD_CAT_ID":"45533","CENTER_NAME":"EARTH","RA_OF_ASC_NODE":"62.6640","COUNTRY_CODE":"US","RCS_SIZE":"LARGE","ARG_OF_PERICENTER":"77.3995","REF_FRAME":"TEME","LAUNCH_DATE":"2020-04-22","MEAN_ELEMENT_THEORY":"SGP4"},{"OBJECT_TYPE":"PAYLOAD","EPOCH":"2021-10-27T14:17:02.872896","BSTAR":"0.00005041800000","PERIAPSIS":"546.340","REV_AT_EPOCH":"8423","FILE":"3187260","GP_ID":"188276025","SEMIMAJOR_AXIS":"6925.335","OBJECT_ID":"2020-025D","PERIOD":"95.592","TLE_LINE2":"2 45534  53.0548  62.7934 0001242  95.6338 264.4793 15.06404427 84237","EPHEMERIS_TYPE":"0","TIME_SYSTEM":"UTC","INCLINATION":"53.0548","MEAN_MOTION_DOT":"0.00000470","ELEMENT_SET_NO":"999","MEAN_MOTION":"15.06404427","ECCENTRICITY":"0.00012420","OBJECT_NAME":"STARLINK-1341","RA_OF_ASC_NODE":"62.7934","COUNTRY_CODE":"US","RCS_SIZE":"LARGE","CENTER_NAME":"EARTH","NORAD_CAT_ID":"45534","REF_FRAME":"TEME","LAUNCH_DATE":"2020-04-22","MEAN_ELEMENT_THEORY":"SGP4","ARG_OF_PERICENTER":"95.6338","SITE":"AFETR","MEAN_MOTION_DDOT":"0.0000000000000","MEAN_ANOMALY":"264.4793","CLASSIFICATION_TYPE":"U","DECAY_DATE":null,"TLE_LINE1":"1 45534U 20025D   21300.59517214  .00000470  00000-0  50418-4 0  9993","APOAPSIS":"548.060"},{"OBJECT_NAME":"STARLINK-1350","ECCENTRICITY":"0.00015320","MEAN_MOTION":"15.06400941","MEAN_MOTION_DOT":"0.00000466","ELEMENT_SET_NO":"999","INCLINATION":"53.0552","TIME_SYSTEM":"UTC","EPHEMERIS_TYPE":"0","TLE_LINE2":"2 45535  53.0552  63.9063 0001532  98.2083 261.9080 15.06400941 84796","PERIOD":"95.592","OBJECT_ID":"2020-025E","SEMIMAJOR_AXIS":"6925.346","GP_ID":"188271687","FILE":"3187107","REV_AT_EPOCH":"8479","PERIAPSIS":"546.150","BSTAR":"0.00005017400000","EPOCH":"2021-10-27T08:21:25.858944","OBJECT_TYPE":"PAYLOAD","APOAPSIS":"548.272","TLE_LINE1":"1 45535U 20025E   21300.34821596  .00000466  00000-0  50174-4 0  9992","DECAY_DATE":null,"CLASSIFICATION_TYPE":"U","MEAN_ANOMALY":"261.9080","MEAN_MOTION_DDOT":"0.0000000000000","SITE":"AFETR","ARG_OF_PERICENTER":"98.2083","MEAN_ELEMENT_THEORY":"SGP4","LAUNCH_DATE":"2020-04-22","REF_FRAME":"TEME","NORAD_CAT_ID":"45535","CENTER_NAME":"EARTH","RCS_SIZE":"LARGE","COUNTRY_CODE":"US","RA_OF_ASC_NODE":"63.9063"},{"BSTAR":"0.00015410000000","EPOCH":"2021-10-27T08:26:44.092608","OBJECT_TYPE":"PAYLOAD","PERIAPSIS":"546.302","REV_AT_EPOCH":"8478","FILE":"3187107","GP_ID":"188270435","OBJECT_ID":"2020-025F","SEMIMAJOR_AXIS":"6925.331","TLE_LINE2":"2 45536  53.0548  63.8836 0001291  96.6539 263.4597 15.06405790 84785","PERIOD":"95.592","EPHEMERIS_TYPE":"0","TIME_SYSTEM":"UTC","INCLINATION":"53.0548","MEAN_MOTION":"15.06405790","ELEMENT_SET_NO":"999","MEAN_MOTION_DOT":"0.00002015","OBJECT_NAME":"STARLINK-1352","ECCENTRICITY":"0.00012910","RA_OF_ASC_NODE":"63.8836","COUNTRY_CODE":"US","RCS_SIZE":"LARGE","NORAD_CAT_ID":"45536","CENTER_NAME":"EARTH","LAUNCH_DATE":"2020-04-22","REF_FRAME":"TEME","MEAN_ELEMENT_THEORY":"SGP4","ARG_OF_PERICENTER":"96.6539","MEAN_MOTION_DDOT":"0.0000000000000","SITE":"AFETR","DECAY_DATE":null,"CLASSIFICATION_TYPE":"U","MEAN_ANOMALY":"263.4597","TLE_LINE1":"1 45536U 20025F   21300.35189922  .00002015  00000-0  15410-3 0  9999","APOAPSIS":"548.090"},{"FILE":"3187107","GP_ID":"188270685","EPOCH":"2021-10-27T06:11:14.241408","OBJECT_TYPE":"PAYLOAD","BSTAR":"0.00051116000000","REV_AT_EPOCH":"8510","PERIAPSIS":"519.432","MEAN_MOTION_DOT":"0.00009362","ELEMENT_SET_NO":"999","MEAN_MOTION":"15.14992670","OBJECT_NAME":"STARLINK-1353","ECCENTRICITY":"0.00022770","INCLINATION":"53.0029","TIME_SYSTEM":"UTC","EPHEMERIS_TYPE":"0","SEMIMAJOR_AXIS":"6899.138","OBJECT_ID":"2020-025G","PERIOD":"95.050","TLE_LINE2":"2 45537  53.0029  39.6559 0002277  59.3569 300.7648 15.14992670 85103","ARG_OF_PERICENTER":"59.3569","REF_FRAME":"TEME","LAUNCH_DATE":"2020-04-22","MEAN_ELEMENT_THEORY":"SGP4","NORAD_CAT_ID":"45537","CENTER_NAME":"EARTH","RA_OF_ASC_NODE":"39.6559","COUNTRY_CODE":"US","RCS_SIZE":"LARGE","TLE_LINE1":"1 45537U 20025G   21300.25780372  .00009362  00000-0  51116-3 0  9990","APOAPSIS":"522.574","MEAN_ANOMALY":"300.7648","DECAY_DATE":null,"CLASSIFICATION_TYPE":"U","SITE":"AFETR","MEAN_MOTION_DDOT":"0.0000000000000"}];
